BEIDOU-3 M17 (C36)      
1 43706U 18093A   26066.28239240  .00000017  00000+0  00000+0 0  9997
2 43706  54.1710 185.7532 0007135 296.7354  59.0219  1.86228475 49634
BEIDOU-3 M18 (C37)      
1 43707U 18093B   26065.61398671  .00000015  00000+0  00000+0 0  9996
2 43707  54.1721 185.7677 0006020 341.1146  18.8397  1.86226588 49625
BEIDOU-3 IGSO-1 (C38)   
1 44204U 19023A   26066.31827644 -.00000205  00000+0  00000+0 0  9990
2 44204  58.5580  38.6956 0025959 236.3216 123.7068  1.00270320  6195
BEIDOU-2 G8 (C01)       
1 44231U 19027A   26066.40322377 -.00000249  00000+0  00000+0 0  9995
2 44231   1.4004  74.2594 0011606 272.0527 108.3854  1.00275598 25064
BEIDOU-3 IGSO-2 (C39)   
1 44337U 19035A   26057.68879618 -.00000176  00000+0  00000+0 0  9995
2 44337  55.2338 159.8353 0038734 206.4752 153.7223  1.00247364 24561
BEIDOU-3 M24 (C46)      
1 44542U 19061A   26065.14698275  .00000012  00000+0  00000+0 0  9998
2 44542  54.3990 186.2022 0008590  20.7979 339.2100  1.86228900 43874
BEIDOU-3 M23 (C45)      
1 44543U 19061B   26066.34628199  .00000017  00000+0  00000+0 0  9995
2 44543  54.3975 186.1302 0005055  13.3914 342.9182  1.86227456 43896
BEIDOU-3 IGSO-3 (C40)   
1 44709U 19073A   26063.99963149 -.00000162  00000+0  00000+0 0  9999
2 44709  54.9773 282.0232 0040551 188.9231 171.0493  1.00269134 23418
BEIDOU-3 M22 (C44)      
1 44793U 19078A   26066.06018572 -.00000065  00000+0  00000+0 0  9991
2 44793  54.0280 303.4217 0007398  37.4223 322.6804  1.86232046 42740
BEIDOU-3 M21 (C43)      
1 44794U 19078B   26066.19978304 -.00000065  00000+0  00000+0 0  9994
2 44794  54.0014 303.3801 0005318  31.7457 328.3372  1.86227693 42756
BEIDOU-3 M19 (C41)      
1 44864U 19090A   26064.56032794 -.00000033  00000+0  00000+0 0  9994
2 44864  56.4687  66.2141 0020433 291.4658 245.9437  1.86231373 42308
BEIDOU-3 M20 (C42)      
1 44865U 19090B   26064.42720734 -.00000032  00000+0  00000+0 0  9997
2 44865  56.4702  66.2529 0017835 302.9017 234.8674  1.86231388 42289
BEIDOU-3 G2 (C60)       
1 45344U 20017A   26066.64416351 -.00000141  00000+0  00000+0 0  9995
2 45344   2.6606  45.6423 0002731 312.4913 119.1467  1.00272784 22242
BEIDOU-3 G3 (C61)       
1 45807U 20040A   26066.31662976 -.00000355  00000+0  00000+0 0  9992
2 45807   2.1970  67.1394 0004605 320.2031   2.1784  1.00274224 21042
BEIDOU-3 G4 (C62)       
1 56564U 23066A   26066.61816492 -.00000112  00000+0  00000+0 0  9993
2 56564   0.6429 311.3646 0002340 155.5272  81.0116  1.00272485 10376
BEIDOU-3 M28 (C50)      
1 58654U 23207A   26065.20334731 -.00000038  00000+0  00000+0 0  9994
2 58654  55.6620  65.7757 0004930 303.3418  56.6273  1.86229805 14925
BEIDOU-3 M26 (C48)      
1 58655U 23207B   26065.53778212 -.00000039  00000+0  00000+0 0  9998
2 58655  55.6644  65.7507 0005731 288.8087  71.1446  1.86229716 14918
